ORBCOMM FM37            
1 33064U 08031E   24278.54616233  .00008428  00000+0  11927-2 0  9994
2 33064  48.4380 117.2615 0005194 352.2464  52.2428 14.77635133876210
ORBCOMM FM40            
1 33065U 08031F   24278.74789514  .00011294  00000+0  15280-2 0  9991
2 33065  48.4402 104.1160 0006207   4.3386 102.5831 14.79264352876748
VESSELSAT 1             
1 37840U 11058C   24278.43570237  .00000888  00000+0  34015-3 0  9990
2 37840  19.9608 201.3148 0013562 253.2796 106.6120 14.11227339670133
ORBCOMM FM109           
1 40086U 14040A   24277.92449950  .00005149  00000+0  11635-2 0  9997
2 40086  47.0016 145.8307 0002360 225.0545 135.0149 14.57277764543791
ORBCOMM FM107           
1 40087U 14040B   24278.37103324  .00004456  00000+0  10134-2 0  9993
2 40087  47.0032 144.7235 0001592 201.5410 158.5408 14.57215527543814
ORBCOMM FM106           
1 40088U 14040C   24278.46810698  .00006282  00000+0  11159-2 0  9990
2 40088  47.0614 346.4257 0018560 316.9446  42.9992 14.67890688545880
ORBCOMM FM111           
1 40089U 14040D   24278.82846908  .00010946  00000+0  13359-2 0  9990
2 40089  47.0023 228.0088 0032066  51.6009 308.7759 14.83228308552274
ORBCOMM FM104           
1 40090U 14040E   24278.83946272  .00004463  00000+0  10474-2 0  9990
2 40090  47.0034 173.1178 0016512 119.1313 241.1227 14.55676842543509
